IRIDIUM 63              
1 25286U 98021B   25085.84437670  .00001086  00000+0  36393-3 0  9993
2 25286  86.3944 116.6892 0002318  95.4911 264.6550 14.36446151412027
IRIDIUM 69              
1 25319U 98026A   25085.83129394  .00001395  00000+0  42940-3 0  9993
2 25319  86.3966 130.2315 0000934  16.0108 344.1121 14.40851562411207
IRIDIUM 71              
1 25320U 98026B   25085.84927966  .00001193  00000+0  36486-3 0  9991
2 25320  86.3953 124.9302 0003065  47.9316 312.2144 14.41054444411737
IRIDIUM 73              
1 25344U 98032C   25085.96471740  .00002166  00000+0  53660-3 0  9995
2 25344  86.4353  81.7409 0001778  88.2479 271.8930 14.51550698418635
IRIDIUM 82              
1 25467U 98051A   25085.68347625  .00040619  00000+0  13345-2 0  9995
2 25467  86.3720 150.1523 0092135 247.9092 111.2354 15.27294141411348
